NORAD_CAT_ID,OBJECT_NAME,OBJECT_TYPE,EPOCH,MEAN_MOTION,ECCENTRICITY,INCLINATION,RA_OF_ASC_NODE,ARG_OF_PERICENTER,MEAN_ANOMALY,BSTAR,MEAN_MOTION_DOT,MEAN_MOTION_DDOT,TLE_LINE0,TLE_LINE1,TLE_LINE2,SEMIMAJOR_AXIS,PERIOD,APOGEE,PERIGEE,DECAYED
53618.0,STARLINK-4604,PAYLOAD,2024-06-19 09:15:28,15.08835077,0.0001246,53.2161,174.6045,87.6337,272.4798,-7.8777e-07,-3e-06,0.0,0 STARLINK-4604,1 53618U 22104AG  24171.38574101 -.00000300  00000-0 -78777-6 0  9993,2 53618  53.2161 174.6045 0001246  87.6337 272.4798 15.08835077100203,6917.895,95.438,540.622,538.898,0.0
53618.0,STARLINK-4604,PAYLOAD,2024-06-20 04:20:05,15.08837722,0.0001249,53.2162,171.0361,92.0632,268.0503,3.329e-05,2.42e-06,0.0,0 STARLINK-4604,1 53618U 22104AG  24172.18061994  .00000242  00000-0  33290-4 0  9995,2 53618  53.2162 171.0361 0001249  92.0632 268.0503 15.08837722100324,6917.887,95.438,540.616,538.888,0.0
53618.0,STARLINK-4604,PAYLOAD,2024-06-20 09:06:14,15.08837134,0.0001292,53.2162,170.1444,89.7526,270.3615,6.3801e-05,7.28e-06,0.0,0 STARLINK-4604,1 53618U 22104AG  24172.37933997  .00000728  00000-0  63801-4 0  9997,2 53618  53.2162 170.1444 0001292  89.7526 270.3615 15.08837134100359,6917.889,95.438,540.648,538.86,0.0
53618.0,STARLINK-4604,PAYLOAD,2024-06-20 17:03:10,15.08837612,0.0001337,53.2167,168.6572,86.0106,274.1039,5.9158e-05,6.54e-06,0.0,0 STARLINK-4604,1 53618U 22104AG  24172.71054071  .00000654  00000-0  59158-4 0  9990,2 53618  53.2167 168.6572 0001337  86.0106 274.1039 15.08837612100401,6917.888,95.438,540.678,538.828,0.0
53618.0,STARLINK-4604,PAYLOAD,2024-06-21 08:57:02,15.08839445,0.000134,53.2166,165.683,87.2216,272.893,8.1419e-05,1.008e-05,0.0,0 STARLINK-4604,1 53618U 22104AG  24173.37294026  .00001008  00000-0  81419-4 0  9998,2 53618  53.2166 165.6830 0001340  87.2216 272.8930 15.08839445100505,6917.882,95.438,540.674,538.82,0.0
53618.0,STARLINK-4604,PAYLOAD,2024-06-22 05:37:02,15.08843567,0.0001371,53.2167,161.817,87.7158,272.3991,6.318e-05,7.18e-06,0.0,0 STARLINK-4604,1 53618U 22104AG  24174.23405775  .00000718  00000-0  63180-4 0  9991,2 53618  53.2167 161.8170 0001371  87.7158 272.3991 15.08843567100631,6917.869,95.437,540.683,538.786,0.0
53618.0,STARLINK-4604,PAYLOAD,2024-06-22 23:06:17,15.0884154,0.0001386,53.2166,158.5467,86.3262,273.7888,4.3617e-05,4.06e-06,0.0,0 STARLINK-4604,1 53618U 22104AG  24174.96269876  .00000406  00000-0  43617-4 0  9998,2 53618  53.2166 158.5467 0001386  86.3262 273.7888 15.08841540100740,6917.876,95.437,540.699,538.782,0.0
53618.0,STARLINK-4604,PAYLOAD,2024-06-23 03:52:26,15.08841595,0.0001379,53.2166,157.6546,86.4339,273.6811,4.2022e-05,3.81e-06,0.0,0 STARLINK-4604,1 53618U 22104AG  24175.16141843  .00000381  00000-0  42022-4 0  9995,2 53618  53.2166 157.6546 0001379  86.4339 273.6811 15.08841595100774,6917.876,95.437,540.694,538.787,0.0
53618.0,STARLINK-4604,PAYLOAD,2024-06-23 08:38:35,15.08843021,0.0001368,53.2164,156.7623,84.3273,275.7875,3.3956e-05,2.53e-06,0.0,0 STARLINK-4604,1 53618U 22104AG  24175.36013749  .00000253  00000-0  33956-4 0  9994,2 53618  53.2164 156.7623 0001368  84.3273 275.7875 15.08843021100803,6917.871,95.437,540.683,538.79,0.0
53618.0,STARLINK-4604,PAYLOAD,2024-06-24 05:18:36,15.08840641,0.0001486,53.2172,152.8962,98.743,261.373,2.786e-05,1.55e-06,0.0,0 STARLINK-4604,1 53618U 22104AG  24176.22125740  .00000155  00000-0  27860-4 0  9993,2 53618  53.2172 152.8962 0001486  98.7430 261.3730 15.08840641100930,6917.878,95.438,540.771,538.715,0.0
53618.0,STARLINK-4604,PAYLOAD,2024-06-25 05:09:24,15.08832938,0.0001508,53.2173,148.436,102.4881,257.628,-2.792e-05,-7.32e-06,0.0,0 STARLINK-4604,1 53618U 22104AG  24177.21486599 -.00000732  00000-0 -27920-4 0  9995,2 53618  53.2173 148.4360 0001508 102.4881 257.6280 15.08832938101087,6917.902,95.438,540.81,538.724,0.0
53618.0,STARLINK-4604,PAYLOAD,2024-06-26 05:00:10,15.08842186,0.0001491,53.2174,143.9756,104.4652,255.6506,8.5403e-05,1.072e-05,0.0,0 STARLINK-4604,1 53618U 22104AG  24178.20845831  .00001072  00000-0  85403-4 0  9999,2 53618  53.2174 143.9756 0001491 104.4652 255.6506 15.08842186101238,6917.874,95.437,540.77,538.707,0.0
53618.0,STARLINK-4604,PAYLOAD,2024-06-27 04:50:58,15.0883736,0.0001251,53.2169,139.5123,96.9552,263.1583,3.5248e-05,2.73e-06,0.0,0 STARLINK-4604,1 53618U 22104AG  24179.20206640  .00000273  00000-0  35248-4 0  9993,2 53618  53.2169 139.5123 0001251  96.9552 263.1583 15.08837360101382,6917.888,95.438,540.619,538.888,0.0
53618.0,STARLINK-4604,PAYLOAD,2024-06-28 14:14:03,15.08849082,0.0001315,53.2158,133.2699,109.9041,250.2093,7.2839e-05,8.72e-06,0.0,0 STARLINK-4604,1 53618U 22104AG  24180.59309840  .00000872  00000-0  72839-4 0  9995,2 53618  53.2158 133.2699 0001315 109.9041 250.2093 15.08849082101598,6917.853,95.437,540.627,538.808,0.0
53618.0,STARLINK-4604,PAYLOAD,2024-06-29 06:07:53,15.08861913,0.0001277,53.216,130.2928,104.666,255.4473,0.00023673,3.484e-05,0.0,0 STARLINK-4604,1 53618U 22104AG  24181.25548482  .00003484  00000-0  23673-3 0  9999,2 53618  53.2160 130.2928 0001277 104.6660 255.4473 15.08861913101696,6917.813,95.436,540.562,538.795,0.0
53618.0,STARLINK-4604,PAYLOAD,2024-06-29 14:04:52,15.08827277,0.0001863,53.2157,128.8089,93.6372,266.4833,-2.7079e-05,-7.19e-06,0.0,0 STARLINK-4604,1 53618U 22104AG  24181.58671674 -.00000719  00000-0 -27079-4 0  9990,2 53618  53.2157 128.8089 0001863  93.6372 266.4833 15.08827277101744,6917.919,95.438,541.073,538.495,0.0
53618.0,STARLINK-4604,PAYLOAD,2024-06-30 02:47:57,15.08815697,0.0001358,53.2147,126.43,90.9966,269.1182,-0.00033021,-5.536e-05,0.0,0 STARLINK-4604,1 53618U 22104AG  24182.11664195 -.00005536  00000-0 -33021-3 0  9995,2 53618  53.2147 126.4300 0001358  90.9966 269.1182 15.08815697101820,6917.955,95.439,540.759,538.88,0.0
53618.0,STARLINK-4604,PAYLOAD,2024-06-30 13:55:39,15.08829321,0.0001326,53.2155,124.3503,85.0007,275.1137,-6.1029e-05,-1.259e-05,0.0,0 STARLINK-4604,1 53618U 22104AG  24182.58031932 -.00001259  00000-0 -61029-4 0  9991,2 53618  53.2155 124.3503 0001326  85.0007 275.1137 15.08829321101890,6917.913,95.438,540.695,538.861,0.0
53618.0,STARLINK-4604,PAYLOAD,2024-07-01 02:38:44,15.08847079,0.000159,53.2144,121.9704,89.961,270.1564,0.00020797,3.024e-05,0.0,0 STARLINK-4604,1 53618U 22104AG  24183.11023288  .00003024  00000-0  20797-3 0  9992,2 53618  53.2144 121.9704 0001590  89.9610 270.1564 15.08847079101978,6917.859,95.437,540.824,538.624,0.0
53618.0,STARLINK-4604,PAYLOAD,2024-07-02 02:29:31,15.08834981,0.0001501,53.2175,117.5072,89.8806,270.2358,0.00033031,4.972e-05,0.0,0 STARLINK-4604,1 53618U 22104AG  24184.10383471  .00004972  00000-0  33031-3 0  9993,2 53618  53.2175 117.5072 0001501  89.8806 270.2358 15.08834981102127,6917.896,95.438,540.799,538.722,0.0
53618.0,STARLINK-4604,PAYLOAD,2024-07-02 12:01:50,15.08837638,0.0001284,53.2162,115.7251,82.79,277.3239,0.00023709,3.487e-05,0.0,0 STARLINK-4604,1 53618U 22104AG  24184.50127589  .00003487  00000-0  23709-3 0  9994,2 53618  53.2162 115.7251 0001284  82.7900 277.3239 15.08837638102181,6917.888,95.438,540.641,538.864,0.0
53618.0,STARLINK-4604,PAYLOAD,2024-07-02 19:58:46,15.08841484,0.0001753,53.2171,114.2415,93.1243,266.995,9.4269e-06,-1.38e-06,0.0,0 STARLINK-4604,1 53618U 22104AG  24184.83248021 -.00000138  00000-0  94269-5 0  9997,2 53618  53.2171 114.2415 0001753  93.1243 266.9950 15.08841484102238,6917.876,95.437,540.954,538.528,0.0
53618.0,STARLINK-4604,PAYLOAD,2024-07-03 11:52:37,15.08843539,0.0001259,53.2153,111.2654,77.8906,282.2228,3.624e-05,2.89e-06,0.0,0 STARLINK-4604,1 53618U 22104AG  24185.49487597  .00000289  00000-0  36240-4 0  9993,2 53618  53.2153 111.2654 0001259  77.8906 282.2228 15.08843539102339,6917.87,95.437,540.606,538.864,0.0
53618.0,STARLINK-4604,PAYLOAD,2024-07-04 11:43:23,15.0884557,0.0001144,53.2163,106.8046,82.6868,277.4254,5.5058e-05,5.89e-06,0.0,0 STARLINK-4604,1 53618U 22104AG  24186.48847206  .00000589  00000-0  55058-4 0  9991,2 53618  53.2163 106.8046 0001144  82.6868 277.4254 15.08845570102487,6917.863,95.437,540.52,538.937,0.0
53618.0,STARLINK-4604,PAYLOAD,2024-07-04 22:51:06,15.08832625,0.0001385,53.2184,104.726,87.6591,272.456,8.9717e-05,1.14e-05,0.0,0 STARLINK-4604,1 53618U 22104AG  24186.95216213  .00001140  00000-0  89717-4 0  9994,2 53618  53.2184 104.7260 0001385  87.6591 272.4560 15.08832625102550,6917.903,95.438,540.726,538.81,0.0
53618.0,STARLINK-4604,PAYLOAD,2024-07-05 03:37:15,15.08848523,0.0001282,53.2178,103.8342,91.2642,268.8497,0.0001231,1.672e-05,0.0,0 STARLINK-4604,1 53618U 22104AG  24187.15087035  .00001672  00000-0  12310-3 0  9999,2 53618  53.2178 103.8342 0001282  91.2642 268.8497 15.08848523102583,6917.854,95.437,540.606,538.832,0.0
53618.0,STARLINK-4604,PAYLOAD,2024-07-05 22:41:53,15.08834701,0.0001352,53.2182,100.263,89.8464,270.2683,3.4342e-05,2.59e-06,0.0,0 STARLINK-4604,1 53618U 22104AG  24187.94576155  .00000259  00000-0  34342-4 0  9992,2 53618  53.2182 100.2630 0001352  89.8464 270.2683 15.08834701102703,6917.897,95.438,540.697,538.826,0.0
53618.0,STARLINK-4604,PAYLOAD,2024-07-06 01:52:39,15.08843631,0.0001347,53.2183,99.6709,83.6754,276.4392,1.9723e-05,2.6e-07,0.0,0 STARLINK-4604,1 53618U 22104AG  24188.07823701  .00000026  00000-0  19723-4 0  9997,2 53618  53.2183  99.6709 0001347  83.6754 276.4392 15.08843631102729,6917.869,95.437,540.666,538.802,0.0
53618.0,STARLINK-4604,PAYLOAD,2024-07-06 11:24:58,15.08838967,0.0001328,53.218,97.8861,85.7069,274.4075,-9.6865e-06,-4.42e-06,0.0,0 STARLINK-4604,1 53618U 22104AG  24188.47567974 -.00000442  00000-0 -96865-5 0  9995,2 53618  53.2180  97.8861 0001328  85.7069 274.4075 15.08838967102784,6917.884,95.438,540.667,538.83,0.0
53618.0,STARLINK-4604,PAYLOAD,2024-07-06 17:46:31,15.08832277,0.0001301,53.2178,96.7,83.988,276.126,1.8566e-05,8e-08,0.0,0 STARLINK-4604,1 53618U 22104AG  24188.74064407  .00000008  00000-0  18566-4 0  9995,2 53618  53.2178  96.7000 0001301  83.9880 276.1260 15.08832277102824,6917.904,95.438,540.669,538.869,0.0
